GMID,Dataset,Facility Name,Address,數據集,設施名稱,地址,District,地區,Facility Type,設施種類,Opening Hours,開放時間,Telephone,聯絡電話,Fax Number,傳真號碼,Email Address,電郵地址,Website,網頁,Facility Details,設施詳情,Northing,Easting,Latitude,Longitude,Last Update
"80hSCBcAOQ","Fitness Rooms","Aberdeen Sports Centre","6/F Aberdeen Municipal Services Building, 203 Aberdeen Main Road, Aberdeen","健身室","香港仔體育館","香港仔大道203號香港仔市政大廈6樓","SOUTHERN","南區","BASKETBALL COURTS,VOLLEYBALL COURTS,BADMINTON COURTS,SQUASH COURTS,TABLE TENNIS TABLES,ACTIVITY ROOMS,FITNESS ROOMS,DANCE ROOMS,CHILDREN'S PLAY ROOMS","籃球場,排球場,羽毛球場,壁球場,乒乓球檯,活動室,健身室,舞蹈室,兒童遊戲室","N.A.","N.A.","N.A.","N.A.","N.A.","N.A.","N.A.","N.A.","http://www.lcsd.gov.hk/en/facilities/facilitieslist/landsports/sportcentre.html","http://www.lcsd.gov.hk/tc/facilities/facilitieslist/landsports/sportcentre.html","N.A.","N.A.","812311.0","833947.0","22.24956","114.15436","2010-01-13 18:47:41"
"1cydaZdr9K","Fitness Rooms","Ap Lei Chau Sports Centre","8 Hung Shing Street, Apleichau","健身室","鴨脷洲體育館","鴨脷洲洪聖街8號","SOUTHERN","南區","BASKETBALL COURTS,VOLLEYBALL COURTS,NETBALL COURTS,BADMINTON COURTS,BOWLING GREENS,SQUASH COURTS,TABLE TENNIS TABLES,ACTIVITY ROOMS,FITNESS ROOMS,DANCE ROOMS,CHILDREN'S PLAY ROOMS","籃球場,排球場,投球場,羽毛球場,草地滾球場,壁球場,乒乓球檯,活動室,健身室,舞蹈室,兒童遊戲室","N.A.","N.A.","N.A.","N.A.","N.A.","N.A.","N.A.","N.A.","http://www.lcsd.gov.hk/en/facilities/facilitieslist/landsports/sportcentre.html","http://www.lcsd.gov.hk/tc/facilities/facilitieslist/landsports/sportcentre.html","N.A.","N.A.","811748.0","834056.0","22.24448","114.15542","2010-01-13 18:48:50"
"C2cPEbqrpV","Fitness Rooms","Chai Wan Sports Centre","6 Yee Shun Street, Chai Wan","健身室","柴灣體育館","香港柴灣怡順街6號","EASTERN","東區","BASKETBALL COURTS,VOLLEYBALL COURTS,BADMINTON COURTS,SQUASH COURTS,TABLE TENNIS TABLES,ACTIVITY ROOMS,FITNESS ROOMS","籃球場,排球場,羽毛球場,壁球場,乒乓球檯,活動室,健身室","","","","","N.A.","N.A.","N.A.","N.A.","http://www.lcsd.gov.hk/en/facilities/facilitieslist/landsports/sportcentre.html","http://www.lcsd.gov.hk/tc/facilities/facilitieslist/landsports/sportcentre.html","N.A.","N.A.","814005.0","842765.0","22.26485","114.23991","2011-12-12 10:07:14"
"ZvenzVSC6B","Fitness Rooms","Cheung Chau Sports Centre","Nam She Tong, Cheung Chau","健身室","長洲體育館","長洲南蛇塘","ISLANDS","離島","BASKETBALL COURTS,VOLLEYBALL COURTS,BADMINTON COURTS,GATEBALL COURTS,TABLE TENNIS TABLES,ACTIVITY ROOMS,FITNESS ROOMS,CHILDREN'S PLAY ROOMS","籃球場,排球場,羽毛球場,門球場,乒乓球檯,活動室,健身室,兒童遊戲室","N.A.","N.A.","N.A.","N.A.","N.A.","N.A.","N.A.","N.A.","http://www.lcsd.gov.hk/en/facilities/facilitieslist/landsports/sportcentre.html","http://www.lcsd.gov.hk/tc/facilities/facilitieslist/landsports/sportcentre.html","N.A.","N.A.","807661.0","821245.0","22.20751","114.03118","2010-01-13 18:47:34"
"HxiWNNWV1l","Fitness Rooms","Cheung Fat Sports Centre","4/F, Cheung Fat Shopping Centre, Cheung Fat Estate, Tsing Yi","健身室","長發體育館","青衣長發邨長發商場四樓","KWAI TSING","葵青","BASKETBALL COURTS,VOLLEYBALL COURTS,BADMINTON COURTS,SQUASH COURTS,TABLE TENNIS TABLES,ACTIVITY ROOMS,FITNESS ROOMS","籃球場,排球場,羽毛球場,壁球場,乒乓球檯,活動室,健身室","","","","","","","","","http://www.lcsd.gov.hk/en/facilities/facilitieslist/landsports/sportcentre.html","http://www.lcsd.gov.hk/tc/facilities/facilitieslist/landsports/sportcentre.html","N.A.","N.A.","824815.8","828627.9","22.36247","114.1027","2010-01-13 18:46:58"
"QoeL48TDSd","Fitness Rooms","Choi Hung Road Sports Centre","Sheung Hei Street, Wong Tai Sin","健身室","彩虹道體育館","黃大仙雙喜街","WONG TAI SIN","黃大仙","BASKETBALL COURTS,VOLLEYBALL COURTS,BADMINTON COURTS,SQUASH COURTS,TABLE TENNIS TABLES,ACTIVITY ROOMS,FITNESS ROOMS","籃球場,排球場,羽毛球場,壁球場,乒乓球檯,活動室,健身室","N.A.","N.A.","N.A.","N.A.","N.A.","N.A.","N.A.","N.A.","http://www.lcsd.gov.hk/en/facilities/facilitieslist/landsports/sportcentre.html","http://www.lcsd.gov.hk/tc/facilities/facilitieslist/landsports/sportcentre.html","N.A.","N.A.","822007.0","838285.0","22.33713","114.19645","2010-01-13 18:43:33"
"mpiOqHLiP9","Fitness Rooms","Chuk Yuen Sports Centre","Chuk Yuen North Estate, Chuk Yuen Road, Wong Tai Sin","健身室","竹園體育館","黃大仙竹園道竹園北村","WONG TAI SIN","黃大仙","BASKETBALL COURTS,VOLLEYBALL COURTS,BADMINTON COURTS,SQUASH COURTS,TABLE TENNIS TABLES,ACTIVITY ROOMS,FITNESS ROOMS","籃球場,排球場,羽毛球場,壁球場,乒乓球檯,活動室,健身室","N.A.","N.A.","N.A.","N.A.","N.A.","N.A.","N.A.","N.A.","http://www.lcsd.gov.hk/en/facilities/facilitieslist/landsports/sportcentre.html","http://www.lcsd.gov.hk/tc/facilities/facilitieslist/landsports/sportcentre.html","N.A.","N.A.","822937.0","837982.0","22.34552","114.19351","2010-01-13 18:42:27"
"xQJ66ObwoT","Fitness Rooms","Fa Yuen Street Sports Centre","13/F Fa Yuen Street Municipal Services Building, 123A Fa Yuen Street, Mong Kok","健身室","花園街體育館","旺角花園街123A號花園街市政大廈13樓","YAU TSIM MONG","油尖旺","BASKETBALL COURTS,VOLLEYBALL COURTS,BADMINTON COURTS,SQUASH COURTS,TABLE TENNIS TABLES,ACTIVITY ROOMS,FITNESS ROOMS,DANCE ROOMS","籃球場,排球場,羽毛球場,壁球場,乒乓球檯,活動室,健身室,舞蹈室","N.A.","N.A.","N.A.","N.A.","N.A.","N.A.","N.A.","N.A.","http://www.lcsd.gov.hk/en/facilities/facilitieslist/landsports/sportcentre.html","http://www.lcsd.gov.hk/tc/facilities/facilitieslist/landsports/sportcentre.html","N.A.","N.A.","820197.0","835632.0","22.32078","114.1707","2010-01-13 18:44:07"
"2z7MIIefEy","Fitness Rooms","Fat Kwong Street Sports Centre","18 Good Shepherd Street, Ho Man Tin","健身室","佛光街體育館","何文田牧愛街18號","KOWLOON CITY","九龍城","BASKETBALL COURTS,VOLLEYBALL COURTS,BADMINTON COURTS,SQUASH COURTS,TABLE TENNIS TABLES,ACTIVITY ROOMS,FITNESS ROOMS","籃球場,排球場,羽毛球場,壁球場,乒乓球檯,活動室,健身室","N.A.","N.A.","N.A.","N.A.","N.A.","N.A.","N.A.","N.A.","http://www.lcsd.gov.hk/en/facilities/facilitieslist/landsports/sportcentre.html","http://www.lcsd.gov.hk/tc/facilities/facilitieslist/landsports/sportcentre.html","N.A.","N.A.","819538.0","836704.0","22.31483","114.18111","2010-01-13 18:42:52"
"R7UxGtPcMs","Fitness Rooms","Fu Heng Sports Centre","1/F, Fu Heng Shopping Centre, Fu Heng Estate, Tai Po","健身室","富亨體育館","大埔富亨邨富亨商場一樓","TAI PO","大埔","BASKETBALL COURTS,VOLLEYBALL COURTS,BADMINTON COURTS,SQUASH COURTS,TABLE TENNIS TABLES,ACTIVITY ROOMS,FITNESS ROOMS","籃球場,排球場,羽毛球場,壁球場,乒乓球檯,活動室,健身室","N.A.","N.A.","N.A.","N.A.","N.A.","N.A.","N.A.","N.A.","http://www.lcsd.gov.hk/en/facilities/facilitieslist/landsports/sportcentre.html","http://www.lcsd.gov.hk/tc/facilities/facilitieslist/landsports/sportcentre.html","N.A.","N.A.","835424.0","835700.0","22.45829","114.17136","2010-10-25 11:00:42"
"vZEY1z8K27","Fitness Rooms","Fu Shin Sports Centre","Multi Car-Park Building, Fu Shin Estate, Tai Po","健身室","富善體育館","大埔富善邨多層停車場","TAI PO","大埔","BASKETBALL COURTS,VOLLEYBALL COURTS,BADMINTON COURTS,TABLE TENNIS TABLES,ACTIVITY ROOMS,FITNESS ROOMS,DANCE ROOMS","籃球場,排球場,羽毛球場,乒乓球檯,活動室,健身室,舞蹈室","N.A.","N.A.","N.A.","N.A.","N.A.","N.A.","N.A.","N.A.","http://www.lcsd.gov.hk/en/facilities/facilitieslist/landsports/sportcentre.html","http://www.lcsd.gov.hk/tc/facilities/facilitieslist/landsports/sportcentre.html","N.A.","N.A.","834936.0","835984.0","22.45388","114.17412","2010-01-13 18:44:01"
"aO5EydtbDY","Fitness Rooms","Fung Kam Street Sports Centre","20 Fung Yau Street North, Yuen Long","健身室","鳳琴街體育館","元朗攸北街二十號","YUEN LONG","元朗","BASKETBALL COURTS,VOLLEYBALL COURTS,BADMINTON COURTS,TABLE TENNIS TABLES,ACTIVITY ROOMS,FITNESS ROOMS","籃球場,排球場,羽毛球場,乒乓球檯,活動室,健身室","N.A.","N.A.","N.A.","N.A.","N.A.","N.A.","N.A.","N.A.","http://www.lcsd.gov.hk/en/facilities/facilitieslist/landsports/sportcentre.html","http://www.lcsd.gov.hk/tc/facilities/facilitieslist/landsports/sportcentre.html","N.A.","N.A.","833745.0","821461.0","22.44306","114.03303","2010-01-13 18:43:12"
"X8hWihu6IQ","Fitness Rooms","Fung Shue Wo Sports Centre","10 Fung Shue Wo Road, Tsing Yi Estate, Phase II, Tsing Yi","健身室","楓樹窩體育館","青衣楓樹窩路10號青衣邨第二期","KWAI TSING","葵青","BASKETBALL COURTS, VOLLEYBALL COURTS, BADMINTON COURTS, ACTIVITY ROOMS, FITNESS ROOMS","籃球場,排球場,羽毛球場,活動室,健身室","","","","","","","","","http://www.lcsd.gov.hk/en/facilities/facilitieslist/landsports/sportcentre.html","http://www.lcsd.gov.hk/tc/facilities/facilitieslist/landsports/sportcentre.html","N.A.","N.A.","824041.3","828627.1","22.35548","114.10269","2010-01-13 18:23:05"
"979T1t2VXr","Fitness Rooms","Hang Hau Sports Centre","1-3/F, Sai Kung Tseung Kwan O Government Complex, 38 Pui Shing Road, Tseung Kwan O.","健身室","坑口體育館","將軍澳培成路38號西貢將軍澳政府綜合大樓1至3樓","SAI KUNG","西貢","BASKETBALL COURTS,VOLLEYBALL COURTS,BADMINTON COURTS,TABLE TENNIS TABLES,ACTIVITY ROOMS,FITNESS ROOMS,CHILDREN'S PLAY ROOMS, INDOOR JOGGING TRACKS","籃球場,排球場,羽毛球場,乒乓球檯,活動室,健身室,兒童遊戲室,室內緩跑徑","N.A.","N.A.","N.A.","N.A.","N.A.","N.A.","N.A.","N.A.","N.A.","N.A.","N.A.","N.A.","819800.3","845681.0","22.31717","114.26824","2012-08-01 11:20:45"
"gxft8py3L7","Fitness Rooms","Heng On Sports Centre","4/F., Heng On Commercial Centre, Heng On Estate, Ma On Shan, Sha Tin","健身室","恒安體育館","沙田馬鞍山恒安邨恒安商場四樓","SHA TIN","沙田","BASKETBALL COURTS,VOLLEYBALL COURTS,BADMINTON COURTS,SQUASH COURTS,TABLE TENNIS TABLES,ACTIVITY ROOMS,FITNESS ROOMS","籃球場,排球場,羽毛球場,壁球場,乒乓球檯,活動室,健身室","N.A.","N.A.","N.A.","N.A.","N.A.","N.A.","N.A.","N.A.","http://www.lcsd.gov.hk/en/facilities/facilitieslist/landsports/sportcentre.html","http://www.lcsd.gov.hk/tc/facilities/facilitieslist/landsports/sportcentre.html","N.A.","N.A.","830818.0","841518.0","22.41669","114.22787","2017-01-27 11:43:19"
"72Zzw9WrNL","Fitness Rooms","Ho Man Tin Sports Centre","1 Chung Yee street, Ho Man Tin","健身室","何文田體育館","九龍何文田忠義街1號","KOWLOON CITY","九龍城","TABLE TENNIS TABLES,AMERICAN POOL TABLES,ACTIVITY ROOMS,TENNIS COURTS,FITNESS ROOMS,CHILDREN'S PLAY ROOMS","乒乓球檯,美式桌球檯,活動室,網球場,健身室,兒童遊戲室","N.A.","N.A.","N.A.","N.A.","N.A.","N.A.","N.A.","N.A.","http://www.lcsd.gov.hk/en/facilities/facilitieslist/landsports/sportcentre.html","http://www.lcsd.gov.hk/tc/facilities/facilitieslist/landsports/sportcentre.html","N.A.","N.A.","819221.0","836718.0","22.31197","114.18124","2010-01-13 18:48:35"
"BzPifUxKW8","Fitness Rooms","Hong Kong Park Sports Centre","29 Cotton Tree Drive, Central","健身室","香港公園體育館","中環紅棉路29號","CENTRAL AND WESTERN","中西區","BADMINTON COURTS,BASKETBALL COURTS,DANCE ROOMS,FITNESS ROOMS,INDOOR JOGGING TRACKS,NETBALL COURTS,TABLE TENNIS TABLES,VOLLEYBALL COURTS","羽毛球場,籃球場,舞蹈室,健身室,室內緩跑徑,投球場,乒乓球檯,排球場","N.A.","N.A.","N.A.","N.A.","N.A.","N.A.","N.A.","N.A.","http://www.lcsd.gov.hk/en/facilities/facilitieslist/landsports/sportcentre.html","http://www.lcsd.gov.hk/tc/facilities/facilitieslist/landsports/sportcentre.html","N.A.","N.A.","815387.0","834456.0","22.27734","114.15929","2018-12-03 14:39:08"
"Ks0Zeqlua7","Fitness Rooms","Island East Sports Centre","52 Lei King Road, Sai Wan Ho","健身室","港島東體育館","西灣河鯉景道52號","EASTERN","東區","BASKETBALL COURTS,VOLLEYBALL COURTS,BADMINTON COURTS,DANCE ROOMS,ACTIVITY ROOMS,TABLE TENNIS TABLES,GOLF FACILITIES,FITNESS ROOMS,CHILDREN'S PLAY ROOMS,BOWLING GREENS,SWIMMING POOLS","籃球場,排球場,羽毛球場,舞蹈室,活動室,乒乓球檯,高爾夫球設施,健身室,兒童遊戲室,草地滾球場,游泳池","N.A.","N.A.","N.A.","N.A.","N.A.","N.A.","N.A.","N.A.","http://www.lcsd.gov.hk/en/facilities/facilitieslist/landsports/sportcentre.html","http://www.lcsd.gov.hk/tc/facilities/facilitieslist/landsports/sportcentre.html","N.A.","N.A.","816205.0","840948.0","22.28472","114.22229","2010-01-13 18:41:31"
"iYVv4IDneF","Fitness Rooms","Kowloon Park Sports Centre","22 Austin Road, Tsim Sha Tsui","健身室","九龍公園體育館","尖沙咀柯士甸道22號","YAU TSIM MONG","油尖旺","VOLLEYBALL COURTS,NETBALL COURTS,BADMINTON COURTS,HANDBALL COURTS,SQUASH COURTS,ACTIVITY ROOMS,FITNESS ROOMS,DANCE ROOMS,TABLE TENNIS TABLES","排球場,投球場,羽毛球場,手球場,壁球場,活動室,健身室,舞蹈室,乒乓球檯","","","","","","","","","http://www.lcsd.gov.hk/en/facilities/facilitieslist/landsports/sportcentre.html","http://www.lcsd.gov.hk/tc/facilities/facilitieslist/landsports/sportcentre.html","N.A.","N.A.","818101.6","835555.3","22.30186","114.16996","2010-01-13 18:48:56"
"EHRIsWEa6z","Fitness Rooms","Kwun Chung Sports Centre","5/F - 7/F, 17 Bowring Street, Jordon","健身室","官涌體育館","佐敦寶靈街17號官涌市政大廈五樓至七樓","YAU TSIM MONG","油尖旺","BASKETBALL COURTS,VOLLEYBALL COURTS,BADMINTON COURTS,SQUASH COURTS,TABLE TENNIS TABLES,ACTIVITY ROOMS,FITNESS ROOMS,DANCE ROOMS","籃球場,排球場,羽毛球場,壁球場,乒乓球檯,活動室,健身室,舞蹈室","N.A.","N.A.","N.A.","N.A.","N.A.","N.A.","N.A.","N.A.","http://www.lcsd.gov.hk/en/facilities/facilitieslist/landsports/sportcentre.html","http://www.lcsd.gov.hk/tc/facilities/facilitieslist/landsports/sportcentre.html","N.A.","N.A.","818387.0","835380.0","22.30444","114.16826","2010-01-13 18:39:37"
"bbCDTEJM3N","Fitness Rooms","Lai King Sports Centre","60 Lai Cho Road, Lai King, Kwai Chung","健身室","荔景體育館","葵涌荔景麗祖路60號","KWAI TSING","葵青","BASKETBALL COURTS,VOLLEYBALL COURTS,BADMINTON COURTS,SQUASH COURTS,TABLE TENNIS TABLES,ACTIVITY ROOMS,FITNESS ROOMS","籃球場,排球場,羽毛球場,壁球場,乒乓球檯,活動室,健身室","","","","","","","","","http://www.lcsd.gov.hk/en/facilities/facilitieslist/landsports/sportcentre.html","http://www.lcsd.gov.hk/tc/facilities/facilitieslist/landsports/sportcentre.html","N.A.","N.A.","823417.4","831200.1","22.34986","114.12767","2010-01-13 18:47:26"
"pEIqhGVtHw","Fitness Rooms","Lam Tin South Sports Centre","170 Pik Wan Road, Lam Tin, Kwun Tong","健身室","藍田(南)體育館","觀塘藍田碧雲道170號","KWUN TONG","觀塘","BASKETBALL COURTS,VOLLEYBALL COURTS,NETBALL COURTS,BADMINTON COURTS,ACTIVITY ROOMS,FITNESS ROOMS,SQUASH COURTS,TABLE TENNIS TABLES,CHILDREN'S PLAY ROOMS","籃球場,排球場,投球場,羽毛球場,活動室,健身室,壁球場,乒乓球檯,兒童遊戲室","","","","","","","","","http://www.lcsd.gov.hk/en/facilities/facilitieslist/landsports/sportcentre.html","http://www.lcsd.gov.hk/tc/facilities/facilitieslist/landsports/sportcentre.html","N.A.","N.A.","818325.0","842653.0","22.30386","114.23884","2010-01-13 18:46:46"
"50LZ5tO27J","Fitness Rooms","Lei Yue Mun Sports Centre","2/F to 5/F of Lei Yue Mun Municipal Services Building, Yau Tong, Kowloon","健身室","鯉魚門體育館","九龍油塘鯉魚門市政大廈二樓至五樓","KWUN TONG","觀塘","BASKETBALL COURTS,VOLLEYBALL COURTS,BADMINTON COURTS,ACTIVITY ROOMS,FITNESS ROOMS,SPORTS CLIMBING FACILITIES,SANSHOU TRAINING HALL,TABLE TENNIS TABLES,AMERICAN POOL TABLES,SQUASH COURTS,CHILDREN'S PLAY ROOMS","籃球場,排球場,羽毛球場,活動室,健身室,運動攀登設施,散手訓練場,乒乓球檯,美式桌球檯,壁球場,兒童遊戲室","N.A.","N.A.","N.A.","N.A.","N.A.","N.A.","N.A.","N.A.","http://www.lcsd.gov.hk/en/facilities/facilitieslist/landsports/sportcentre.html","http://www.lcsd.gov.hk/tc/facilities/facilitieslist/landsports/sportcentre.html","N.A.","N.A.","817018.0","842637.0","22.29206","114.23868","2010-01-13 18:39:46"
"XxdrxTnbR3","Fitness Rooms","Leung Tin Sports Centre","4/F, Carpark Building, Tin King Estate, Tuen Mun","健身室","良田體育館","屯門田景邨停車場四字褸","TUEN MUN","屯門","BASKETBALL COURTS,VOLLEYBALL COURTS,BADMINTON COURTS,SQUASH COURTS,TABLE TENNIS TABLES,ACTIVITY ROOMS,FITNESS ROOMS","籃球場,排球場,羽毛球場,壁球場,乒乓球檯,活動室,健身室","N.A.","N.A.","N.A.","N.A.","N.A.","N.A.","N.A.","N.A.","http://www.lcsd.gov.hk/en/facilities/facilitieslist/landsports/sportcentre.html","http://www.lcsd.gov.hk/tc/facilities/facilitieslist/landsports/sportcentre.html","N.A.","N.A.","829716.0","814461.0","22.4066","113.96508","2010-01-13 18:42:44"
"RWVzP9IL4W","Fitness Rooms","Lockhart Road Sports Centre","10/F Lockhart Road Municipal Services Building, 225 Hennessy Road, Wanchai","健身室","駱克道體育館","灣仔軒尼詩道225號駱克道市政大廈11樓","WAN CHAI","灣仔","BASKETBALL COURTS,VOLLEYBALL COURTS,BADMINTON COURTS,SQUASH COURTS,TABLE TENNIS TABLES,ACTIVITY ROOMS,FITNESS ROOMS","籃球場,排球場,羽毛球場,壁球場,乒乓球檯,活動室,健身室","N.A.","N.A.","N.A.","N.A.","N.A.","N.A.","N.A.","N.A.","http://www.lcsd.gov.hk/en/facilities/facilitieslist/landsports/sportcentre.html","http://www.lcsd.gov.hk/tc/facilities/facilitieslist/landsports/sportcentre.html","N.A.","N.A.","815468.0","836118.0","22.27808","114.17542","2010-01-13 18:45:03"
"GkGGfEvTGQ","Fitness Rooms","Long Ping Sports Centre","Unit 202, 2/F, Long Ping Commercial Centre, Long Ping Estate, Yuen Long","健身室","朗屏體育館","元朗朗屏邨朗屏商場二樓202號","YUEN LONG","元朗","BASKETBALL COURTS,VOLLEYBALL COURTS,BADMINTON COURTS,SQUASH COURTS,TABLE TENNIS TABLES,ACTIVITY ROOMS,FITNESS ROOMS","籃球場,排球場,羽毛球場,壁球場,乒乓球檯,活動室,健身室","N.A.","N.A.","N.A.","N.A.","N.A.","N.A.","N.A.","N.A.","http://www.lcsd.gov.hk/en/facilities/facilitieslist/landsports/sportcentre.html","http://www.lcsd.gov.hk/tc/facilities/facilitieslist/landsports/sportcentre.html","N.A.","N.A.","834547.0","820449.0","22.4503","114.02319","2018-10-09 16:55:59"
"beSpGJQrvL","Fitness Rooms","Luen Wo Hui Sports Centre","3/F., 9 Wo Mun Street, Fanling","健身室","聯和墟體育館","粉嶺和滿街9號3樓","NORTH","北區","TABLE TENNIS TABLES,FITNESS ROOMS,ACTIVITY ROOMS,DANCE ROOMS,CHILDREN'S PLAY ROOMS","乒乓球檯,健身室,活動室,舞蹈室,兒童遊戲室","N.A.","N.A.","N.A.","N.A.","N.A.","N.A.","N.A.","N.A.","http://www.lcsd.gov.hk/en/facilities/facilitieslist/landsports/sportcentre.html","http://www.lcsd.gov.hk/tc/facilities/facilitieslist/landsports/sportcentre.html","N.A.","N.A.","840074.0","832990.0","22.50028","114.14502","2010-01-13 18:47:58"
"UcROxefkA9","Fitness Rooms","Lung Sum Avenue Sports Centre","155 Jockey Club Road, Sheung Shui","健身室","龍琛路體育館","上水馬會道155號","NORTH","北區","BASKETBALL COURTS,VOLLEYBALL COURTS,BADMINTON COURTS,SQUASH COURTS,TABLE TENNIS TABLES,ACTIVITY ROOMS,FITNESS ROOMS,DANCE ROOMS","籃球場,排球場,羽毛球場,壁球場,乒乓球檯,活動室,健身室,舞蹈室","N.A.","N.A.","N.A.","N.A.","N.A.","N.A.","N.A.","N.A.","http://www.lcsd.gov.hk/en/facilities/facilitieslist/landsports/sportcentre.html","http://www.lcsd.gov.hk/tc/facilities/facilitieslist/landsports/sportcentre.html","N.A.","N.A.","840595.0","831491.0","22.50498","114.13045","2010-01-13 18:44:38"
"rOCazl5GqH","Fitness Rooms","Ma On Shan Sports Centre","14 On Chun Street, Ma On Shan, Shatin","健身室","馬鞍山體育館","馬鞍山鞍駿街14號","SHA TIN","沙田","BASKETBALL COURTS,VOLLEYBALL COURTS,BADMINTON COURTS,HANDBALL COURTS,TABLE TENNIS TABLES,FITNESS ROOMS,DANCE ROOMS,ACTIVITY ROOMS,CHILDREN'S PLAY ROOMS","籃球場,排球場,羽毛球場,手球場,乒乓球檯,健身室,舞蹈室,活動室,兒童遊戲室","N.A.","N.A.","N.A.","N.A.","N.A.","N.A.","N.A.","N.A.","http://www.lcsd.gov.hk/en/facilities/facilitieslist/landsports/sportcentre.html","http://www.lcsd.gov.hk/tc/facilities/facilitieslist/landsports/sportcentre.html","N.A.","N.A.","831852.0","841692.0","22.42602","114.22956","2010-01-13 18:41:39"
"v0sGoqLf5C","Fitness Rooms","Mei Lam Sports Centre","Mei Lam Estate Phase III, Tai Wai, Sha Tin","健身室","美林體育館","沙田大圍美林邨第三期","SHA TIN","沙田","BASKETBALL COURTS,VOLLEYBALL COURTS,BADMINTON COURTS,SQUASH COURTS,TABLE TENNIS TABLES,ACTIVITY ROOMS,FITNESS ROOMS,DANCE ROOMS","籃球場,排球場,羽毛球場,壁球場,乒乓球檯,活動室,健身室,舞蹈室","N.A.","N.A.","N.A.","N.A.","N.A.","N.A.","N.A.","N.A.","http://www.lcsd.gov.hk/en/facilities/facilitieslist/landsports/sportcentre.html","http://www.lcsd.gov.hk/tc/facilities/facilitieslist/landsports/sportcentre.html","N.A.","N.A.","826653.0","836126.0","22.37908","114.1755","2010-01-13 18:42:59"
"nD4LTc5Mzo","Fitness Rooms","Mui Wo Sports Centre","1/F, Mui Wo Municipal Services Building, 9 Ngan Shek Street, Lantau Island","健身室","梅窩體育館","大嶼山銀石街9號梅窩市政大廈一樓","ISLANDS","離島","BASKETBALL COURTS,VOLLEYBALL COURTS,BADMINTON COURTS,GATEBALL COURTS,ACTIVITY ROOMS,FITNESS ROOMS,SQUASH COURTS","籃球場,排球場,羽毛球場,門球場,活動室,健身室,壁球場","N.A.","N.A.","N.A.","N.A.","N.A.","N.A.","N.A.","N.A.","http://www.lcsd.gov.hk/en/facilities/facilitieslist/landsports/sportcentre.html","http://www.lcsd.gov.hk/tc/facilities/facilitieslist/landsports/sportcentre.html","N.A.","N.A.","814251.0","817675.0","22.26699","113.99648","2010-01-13 18:48:42"
"HQm0TPc2QU","Fitness Rooms","Ngau Tau Kok Road Sports Centre","3/F-4/F Ngau Tau Kok Municipal Services Building, 183 Ngau Tau Kok Road, Ngau Tau Kok","健身室","牛頭角道體育館","觀塘牛頭角道牛頭角市政大廈三至四樓","KWUN TONG","觀塘","BASKETBALL COURTS,VOLLEYBALL COURTS,BADMINTON COURTS,TABLE TENNIS TABLES,ACTIVITY ROOMS,FITNESS ROOMS","籃球場,排球場,羽毛球場,乒乓球檯,活動室,健身室","","","","","","","","","http://www.lcsd.gov.hk/en/facilities/facilitieslist/landsports/sportcentre.html","http://www.lcsd.gov.hk/tc/facilities/facilitieslist/landsports/sportcentre.html","N.A.","N.A.","820275.0","840338.0","22.32148","114.21638","2010-01-13 18:39:19"
"0ydU9SRptM","Fitness Rooms","North Kwai Chung Tang Shiu Kin Sports Centre","292 Wo Yi Hop Road, Kwai Chung","健身室","北葵涌鄧肇堅體育館","葵涌和宜合路292號","KWAI TSING","葵青","BASKETBALL COURTS, VOLLEYBALL COURTS, BADMINTON COURTS,TENNIS COURTS,SQUASH COURTS,TABLE TENNIS TABLES,ACTIVITY ROOMS,FITNESS ROOMS","籃球場,排球場,羽毛球場,網球場,壁球場,乒乓球檯,活動室,健身室","","","","","","","N.A.","N.A.","http://www.lcsd.gov.hk/en/facilities/facilitieslist/landsports/sportcentre.html","http://www.lcsd.gov.hk/tc/facilities/facilitieslist/landsports/sportcentre.html","N.A.","N.A.","826076.4","832218.8","22.37387","114.13756","2010-01-13 18:47:12"
"HEqmpuhKek","Fitness Rooms","Osman Ramju Sadick Memorial Sports Centre","176 Hing Fong Road, Kwai Chung","健身室","林士德體育館","葵涌興芳路176號","KWAI TSING","葵青","BASKETBALL COURTS,VOLLEYBALL COURTS,BADMINTON COURTS,TABLE TENNIS TABLES,ACTIVITY ROOMS,FITNESS ROOMS,DANCE ROOMS","籃球場,排球場,羽毛球場,乒乓球檯,活動室,健身室,舞蹈室","","","","","","","","","http://www.lcsd.gov.hk/en/facilities/facilitieslist/landsports/sportcentre.html","http://www.lcsd.gov.hk/tc/facilities/facilitieslist/landsports/sportcentre.html","N.A.","N.A.","824665.0","831391.0","22.36112","114.12952","2010-01-13 18:43:06"
"ZSyCSrj3cj","Fitness Rooms","Pei Ho Street Sports Centre","5/F Pei Ho Street Municipal Services Building, 333 Ki Lung Street, Sham Shui Po","健身室","北河街體育館","深水埗基隆街333號北河街市政大廈5字樓","SHAM SHUI PO","深水埗","BASKETBALL COURTS,VOLLEYBALL COURTS,BADMINTON COURTS,SQUASH COURTS,TABLE TENNIS TABLES,ACTIVITY ROOMS,FITNESS ROOMS,DANCE ROOMS,CHILDREN'S PLAY ROOMS","籃球場,排球場,羽毛球場,壁球場,乒乓球檯,活動室,健身室,舞蹈室,兒童遊戲室","N.A.","N.A.","N.A.","N.A.","N.A.","N.A.","N.A.","N.A.","http://www.lcsd.gov.hk/en/facilities/facilitieslist/landsports/sportcentre.html","http://www.lcsd.gov.hk/tc/facilities/facilitieslist/landsports/sportcentre.html","N.A.","N.A.","821134.0","834646.0","22.32924","114.16113","2010-01-13 18:43:47"
"JwMz81ecy1","Fitness Rooms","Peng Chau Sports Centre","Peng Chau Municipal Services Building, 6 Po Peng Street, Peng Chau","健身室","坪洲體育館","坪洲寶坪街6號坪洲市政大廈","ISLANDS","離島","BASKETBALL COURTS,VOLLEYBALL COURTS,BADMINTON COURTS,SQUASH COURTS,ACTIVITY ROOMS,FITNESS ROOMS","籃球場,排球場,羽毛球場,壁球場,活動室,健身室","N.A.","N.A.","N.A.","N.A.","N.A.","N.A.","N.A.","N.A.","http://www.lcsd.gov.hk/en/facilities/facilitieslist/landsports/sportcentre.html","http://www.lcsd.gov.hk/tc/facilities/facilitieslist/landsports/sportcentre.html","N.A.","N.A.","816229.0","821962.0","22.28489","114.03805","2010-01-13 18:41:24"
"jMjijMXhQk","Fitness Rooms","Po Kong Village Road Sports Centre","120 Po Kong Village Road, Wong Tai Sin","健身室","蒲崗村道體育館","黃大仙蒲崗村道120號","WONG TAI SIN","黃大仙","BASKETBALL COURTS,VOLLEYBALL COURTS,BADMINTON COURTS,SQUASH COURTS,TABLE TENNIS TABLES,ACTIVITY ROOMS,FITNESS ROOMS,CHILDREN'S PLAY ROOMS","籃球場,排球場,羽毛球場,壁球場,乒乓球檯,活動室,健身室,兒童遊戲室","N.A.","N.A.","N.A.","N.A.","N.A.","N.A.","N.A.","N.A.","http://www.lcsd.gov.hk/en/facilities/facilitieslist/landsports/sportcentre.html","http://www.lcsd.gov.hk/tc/facilities/facilitieslist/landsports/sportcentre.html","N.A.","N.A.","822930.0","838814.0","22.34546","114.20159","2010-01-13 18:46:34"
"beRdrUruU3","Fitness Rooms","Po Lam Sports Centre","Po Lam Estate, Tseung Kwan O, Sai Kung","健身室","寶林體育館","西貢將軍澳寶林邨","SAI KUNG","西貢","BASKETBALL COURTS,VOLLEYBALL COURTS,BADMINTON COURTS,SQUASH COURTS,TABLE TENNIS TABLES,ACTIVITY ROOMS,FITNESS ROOMS","籃球場,排球場,羽毛球場,壁球場,乒乓球檯,活動室,健身室","","","","","","","","","http://www.lcsd.gov.hk/en/facilities/facilitieslist/landsports/sportcentre.html","http://www.lcsd.gov.hk/tc/facilities/facilitieslist/landsports/sportcentre.html","N.A.","N.A.","820761.0","844328.0","22.32586","114.25511","2010-01-13 18:45:49"
"RnO78CrxyU","Fitness Rooms","Po On Road Sports Centre","1/F & 2/F Po On Road Municipal Services Building, 325-329 Po On Road, Sham Shui Po","健身室","保安道體育館","深水埗保安道325-329號保安道市政大廈2至3樓","SHAM SHUI PO","深水埗","BASKETBALL COURTS,VOLLEYBALL COURTS,BADMINTON COURTS,SQUASH COURTS,TABLE TENNIS TABLES,ACTIVITY ROOMS,FITNESS ROOMS,DANCE ROOMS","籃球場,排球場,羽毛球場,壁球場,乒乓球檯,活動室,健身室,舞蹈室","N.A.","N.A.","N.A.","N.A.","N.A.","N.A.","N.A.","N.A.","http://www.lcsd.gov.hk/en/facilities/facilitieslist/landsports/sportcentre.html","http://www.lcsd.gov.hk/tc/facilities/facilitieslist/landsports/sportcentre.html","N.A.","N.A.","822172.3","834261.0","22.33862","114.15739","2010-01-13 18:46:13"
"NaDMA7XHJI","Fitness Rooms","Po Wing Road Sports Centre","19 Pak Wo Road, Sheung Shui, New Territories","健身室","保榮路體育館","新界上水百和路19號","NORTH","北區","BASKETBALL COURTS,VOLLEYBALL COURTS,BADMINTON COURTS,TABLE TENNIS TABLES, AMERICAN POOL TABLES, ACTIVITY ROOMS, FITNESS ROOMS, CHILDREN'S PLAY ROOMS, INDOOR JOGGING TRACKS, SPORTS CLIMBING FACILITIES","籃球場,排球場,羽毛球場,乒乓球室,美式桌球檯,活動室,健身室,兒童遊戲室,室內緩跑徑,運動攀登設施","N.A.","N.A.","N.A.","N.A.","N.A.","N.A.","N.A.","N.A.","N.A.","N.A.","N.A.","N.A.","839708.9","831273.9","22.49698","114.12834","2012-08-01 11:19:53"
"edmvHp5opH","Fitness Rooms","Quarry Bay Sports Centre","6/F & 7/F, Quarry Bay Municipal Services Building, 38 Quarry Bay Street, Quarry Bay","健身室","鰂魚涌體育館","鰂魚涌街38號","EASTERN","東區","BASKETBALL COURTS,VOLLEYBALL COURTS,BADMINTON COURTS,SQUASH COURTS,TABLE TENNIS TABLES,ACTIVITY ROOMS,FITNESS ROOMS,DANCE ROOMS","籃球場,排球場,羽毛球場,壁球場,乒乓球檯,活動室,健身室,舞蹈室","N.A.","N.A.","N.A.","N.A.","N.A.","N.A.","N.A.","N.A.","http://www.lcsd.gov.hk/en/facilities/facilitieslist/landsports/sportcentre.html","http://www.lcsd.gov.hk/tc/facilities/facilitieslist/landsports/sportcentre.html","N.A.","N.A.","816090.0","839866.0","22.28369","114.21179","2010-01-13 18:44:25"
"6FcFsDbhcX","Fitness Rooms","Shek Kip Mei Park Sports Centre","290 Nam Cheong Street, Shek Kip Mei","健身室","石硤尾公園體育館","石硤尾南昌街290號","SHAM SHUI PO","深水埗","BASKETBALL COURTS,VOLLEYBALL COURTS,NETBALL COURTS,HANDBALL COURTS,BADMINTON COURTS,ACTIVITY ROOMS,DANCE ROOMS,FITNESS ROOMS,CHILDREN'S PLAY ROOMS,SPORTS CLIMBING FACILITIES","籃球場,排球場,投球場,手球場,羽毛球場,活動室,舞蹈室,健身室,兒童遊戲室,運動攀登設施","N.A.","N.A.","N.A.","N.A.","N.A.","N.A.","N.A.","N.A.","http://www.lcsd.gov.hk/en/facilities/facilitieslist/landsports/sportcentre.html","http://www.lcsd.gov.hk/tc/facilities/facilitieslist/landsports/sportcentre.html","N.A.","N.A.","822025.0","835556.0","22.33729","114.16996","2010-01-13 18:40:21"
"RPCYeFHeZa","Fitness Rooms","Shek Tong Tsui Sports Centre","5/F Shek Tong Tsui Municipal Services Building, 470 Queen's Road West","健身室","石瑭咀體育館","皇后大道西470號石瑭咀市政大廈5樓","CENTRAL AND WESTERN","中西區","BASKETBALL COURTS,VOLLEYBALL COURTS,BADMINTON COURTS,SQUASH COURTS,TABLE TENNIS TABLES,ACTIVITY ROOMS,FITNESS ROOMS,DANCE ROOMS,CHILDREN'S PLAY ROOMS","籃球場,排球場,羽毛球場,壁球場,乒乓球檯,活動室,健身室,舞蹈室,兒童遊戲室","N.A.","N.A.","N.A.","N.A.","N.A.","N.A.","N.A.","N.A.","http://www.lcsd.gov.hk/en/facilities/facilitieslist/landsports/sportcentre.html","http://www.lcsd.gov.hk/tc/facilities/facilitieslist/landsports/sportcentre.html","N.A.","N.A.","816315.0","832061.0","22.28572","114.13605","2018-12-03 11:54:03"
"GMT9taCJKG","Fitness Rooms","Sheung Wan Sports Centre","11/F Sheung Wan Municipal Services Building, 345 Queen's Road Central","健身室","上環體育館","上環皇后大道中345號上環市政大廈11樓","CENTRAL AND WESTERN","中西區","BASKETBALL COURTS,VOLLEYBALL COURTS,BADMINTON COURTS,SQUASH COURTS,TABLE TENNIS TABLES,ACTIVITY ROOMS,FITNESS ROOMS,DANCE ROOMS","籃球場,排球場,羽毛球場,壁球場,乒乓球檯,活動室,健身室,舞蹈室","N.A.","N.A.","N.A.","N.A.","N.A.","N.A.","N.A.","N.A.","http://www.lcsd.gov.hk/en/facilities/facilitieslist/landsports/sportcentre.html","http://www.lcsd.gov.hk/tc/facilities/facilitieslist/landsports/sportcentre.html","N.A.","N.A.","816346.0","833460.0","22.286","114.14963","2018-12-03 11:54:03"
"kUp9po8NdI","Fitness Rooms","Shun Lee Tsuen Sports Centre","Shun Lee Tsuen Road, Kwun Tong","健身室","順利邨體育館","觀塘順利邨道","KWUN TONG","觀塘","BASKETBALL COURTS,NETBALL COURTS,BADMINTON COURTS,GYMNASTICS TRAINING HALL,FITNESS ROOMS,DANCE ROOMS,TABLE TENNIS TABLES,SQUASH COURTS,ACTIVITY ROOMS,GOLF FACILITIES,SPORTS CLIMBING FACILITIES,CHILDREN'S PLAY ROOMS","籃球場,投球場,羽毛球場,體操訓練場,健身室,舞蹈室,乒乓球檯,壁球場,活動室,高爾夫球設施,運動攀登設施,兒童遊戲室","N.A.","N.A.","N.A.","N.A.","N.A.","N.A.","N.A.","N.A.","http://www.lcsd.gov.hk/en/facilities/facilitieslist/landsports/sportcentre.html","http://www.lcsd.gov.hk/tc/facilities/facilitieslist/landsports/sportcentre.html","N.A.","N.A.","821184.0","841271.0","22.32969","114.22544","2010-01-13 18:39:29"
"uyoeQh3vef","Fitness Rooms","Siu Lun Sports Centre","2-5/F Tuen Mun Siu Lun Government Complex, 19 Siu Lun Street, Tuen Mun, N.T.","健身室","兆麟體育館","新界屯門兆麟街19號屯門兆麟政府綜合大樓2至5樓","TUEN MUN","屯門","ACTIVITY ROOMS,BADMINTON COURTS,BASKETBALL COURTS,CHILDREN'S PLAY ROOMS,FITNESS ROOMS,HANDBALL COURTS,SPORTS CLIMBING FACILITIES,TABLE TENNIS TABLES,VOLLEYBALL COURTS","活動室,羽毛球場,籃球場,兒童遊戲室,健身室,手球場,運動攀登設施,乒乓球檯,排球場","7am to 11pm daily (except maintenance days)","每日上午7時至晚上11時 (定期保養日除外)","2659 2311","2659 2311","2659 2411","2659 2411","slsc@lcsd.gov.hk","slsc@lcsd.gov.hk","https://www.lcsd.gov.hk/en/facilities/facilitieslist/landsports/sportcentre.html","https://www.lcsd.gov.hk/tc/facilities/facilitieslist/landsports/sportcentre.html","N.A.","N.A.","827239.0","815911.0","22.38425","113.9792","2019-10-02 14:32:57"
"GmqL1kydga","Fitness Rooms","Smithfield Sports Centre","4/F, Smithfield Municipal Services Building, 12K Smithfield Road, Kennedy Town, Western","健身室","士美非路體育館","西區士美非路12K士美非路市政大廈4樓","CENTRAL AND WESTERN","中西區","BASKETBALL COURTS,VOLLEYBALL COURTS,BADMINTON COURTS,FITNESS ROOMS,DANCE ROOMS,ACTIVITY ROOMS,TABLE TENNIS TABLES,SQUASH COURTS,AMERICAN POOL TABLES,CHILDREN'S PLAY ROOMS","籃球場,排球場,羽毛球場,健身室,舞蹈室,活動室,乒乓球檯,壁球場,美式桌球檯,兒童遊戲室","N.A.","N.A.","N.A.","N.A.","N.A.","N.A.","N.A.","N.A.","http://www.lcsd.gov.hk/en/facilities/facilitieslist/landsports/sportcentre.html","http://www.lcsd.gov.hk/tc/facilities/facilitieslist/landsports/sportcentre.html","N.A.","N.A.","815897.0","831297.0","22.28194","114.12864","2018-12-03 11:54:02"
"vx49I0ELOm","Fitness Rooms","Sun Yat Sen Memorial Park Sports Centre","18 Eastern Street North, Sai Ying Pun","健身室","中山紀念公園體育館","西營盤東邊街北18號","CENTRAL AND WESTERN","中西區","BASKETBALL COURTS,VOLLEYBALL COURTS,NETBALL COURTS,BADMINTON COURTS,HANDBALL COURTS,FITNESS ROOMS,DANCE ROOMS,SQUASH COURTS,ACTIVITY ROOMS, TABLE TENNIS TABLES, CHILDREN'S PLAY ROOMS","籃球場,排球場,投球場,羽毛球場,手球場,健身室,舞蹈室,壁球場,活動室,乒乓球檯,兒童遊戲室","N.A.","N.A.","N.A.","N.A.","N.A.","N.A.","N.A.","N.A.","http://www.lcsd.gov.hk/en/facilities/facilitieslist/landsports/sportcentre.html","http://www.lcsd.gov.hk/tc/facilities/facilitieslist/landsports/sportcentre.html","N.A.","N.A.","816808.0","832828.0","22.29017","114.14349","2018-12-03 11:54:02"
"F2yrtLLjXO","Fitness Rooms","Tai Hing Sports Centre","38 Tsing Chung Koon Road, Tuen Mun","健身室","大興體育館","屯門青松觀路38號","TUEN MUN","屯門","BASKETBALL COURTS,VOLLEYBALL COURTS,NETBALL COURTS,BADMINTON COURTS,SQUASH COURTS,TABLE TENNIS TABLES,ACTIVITY ROOMS,DANCE ROOMS,FITNESS ROOMS","籃球場,排球場,投球場,羽毛球場,壁球場,乒乓球檯,活動室,舞蹈室,健身室","","","","","","","","","http://www.lcsd.gov.hk/en/facilities/facilitieslist/landsports/sportcentre.html","http://www.lcsd.gov.hk/tc/facilities/facilitieslist/landsports/sportcentre.html","N.A.","N.A.","829358.0","815282.9","22.40338","113.97307","2010-01-13 18:47:05"
"jn4MU7P4XN","Fitness Rooms","Tai Kok Tsui Sports Centre","5-7/F., Tai Kok Tsui Municipal Services Building, 63 Fuk Tsun Street, Tai Kok Tsui","健身室","大角咀體育館","九龍大角咀福全街63號大角咀市政大廈五樓至七樓","YAU TSIM MONG","油尖旺","BASKETBALL COURTS,VOLLEYBALL COURTS,BADMINTON COURTS,SPORTS CLIMBING FACILITIES,FITNESS ROOMS,CHILDREN'S PLAY ROOMS,TABLE TENNIS TABLES,ACTIVITY ROOMS","籃球場,排球場,羽毛球場,運動攀登設施,健身室,兒童遊戲室,乒乓球檯,活動室","N.A.","N.A.","N.A.","N.A.","N.A.","N.A.","N.A.","N.A.","http://www.lcsd.gov.hk/en/facilities/facilitieslist/landsports/sportcentre.html","http://www.lcsd.gov.hk/tc/facilities/facilitieslist/landsports/sportcentre.html","N.A.","N.A.","820319.0","834817.0","22.32188","114.16279","2010-01-13 18:39:59"
"OiNS4XSkjd","Fitness Rooms","Tai Po Hui Sports Centre","6/F Multi Car-Park Building, Fu Shin Estate, 8 Heung Sze Wui Street, Tai Po","健身室","大埔墟體育館","大埔鄉事會街8號大埔綜合大樓6樓","TAI PO","大埔","BASKETBALL COURTS,VOLLEYBALL COURTS,BADMINTON COURTS,TABLE TENNIS TABLES,ACTIVITY ROOMS,FITNESS ROOMS,DANCE ROOMS,CHILDREN'S PLAY ROOMS","籃球場,排球場,羽毛球場,乒乓球檯,活動室,健身室,舞蹈室,兒童遊戲室","N.A.","N.A.","N.A.","N.A.","N.A.","N.A.","N.A.","N.A.","http://www.lcsd.gov.hk/en/facilities/facilitieslist/landsports/sportcentre.html","http://www.lcsd.gov.hk/tc/facilities/facilitieslist/landsports/sportcentre.html","N.A.","N.A.","834077.0","835208.0","22.44612","114.16658","2010-01-13 18:44:17"
"fqPlVbs4pZ","Fitness Rooms","Tai Po Sports Centre","13 Ting Tai Road, Tai Po","健身室","大埔體育館","大埔汀太路13號","TAI PO","大埔","BASKETBALL COURTS,VOLLEYBALL COURTS,BADMINTON COURTS,SQUASH COURTS,TABLE TENNIS TABLES,ACTIVITY ROOMS,FITNESS ROOMS,DANCE ROOMS","籃球場,排球場,羽毛球場,壁球場,乒乓球檯,活動室,健身室,舞蹈室","N.A.","N.A.","N.A.","N.A.","N.A.","N.A.","N.A.","N.A.","http://www.lcsd.gov.hk/en/facilities/facilitieslist/landsports/sportcentre.html","http://www.lcsd.gov.hk/tc/facilities/facilitieslist/landsports/sportcentre.html","N.A.","N.A.","835097.0","835035.0","22.45534","114.1649","2010-01-13 18:42:38"
"3FeNLYvXCy","Fitness Rooms","Tai Wo Hau Sports Centre","39 Tai Ha Street, Tai Wo Hau, Kwai Chung","健身室","大窩口體育館","葵涌大窩口大廈街39號","KWAI TSING","葵青","BASKETBALL COURTS,VOLLEYBALL COURTS,BADMINTON COURTS,SQUASH COURTS,TABLE TENNIS TABLES,ACTIVITY ROOMS,FITNESS ROOMS","籃球場,排球場,羽毛球場,壁球場,乒乓球檯,活動室,健身室","","","","","","","","","http://www.lcsd.gov.hk/en/facilities/facilitieslist/landsports/sportcentre.html","http://www.lcsd.gov.hk/tc/facilities/facilitieslist/landsports/sportcentre.html","N.A.","N.A.","825670.1","830920.2","22.3702","114.12495","2010-01-13 18:47:19"
"GTuuq81NTF","Fitness Rooms","Tai Wo Sports Centre","Podium Level, Tai Wo Shopping Centre, Tai Wo Estate, Tai Po","健身室","太和體育館","大埔太和邨太和商場平台","TAI PO","大埔","BASKETBALL COURTS,VOLLEYBALL COURTS,BADMINTON COURTS,SQUASH COURTS,TABLE TENNIS TABLES,ACTIVITY ROOMS,FITNESS ROOMS","籃球場,排球場,羽毛球場,壁球場,乒乓球檯,活動室,健身室","N.A.","N.A.","N.A.","N.A.","N.A.","N.A.","N.A.","N.A.","http://www.lcsd.gov.hk/en/facilities/facilitieslist/landsports/sportcentre.html","http://www.lcsd.gov.hk/tc/facilities/facilitieslist/landsports/sportcentre.html","N.A.","N.A.","834617.0","834591.0","22.451","114.16058","2010-01-13 18:44:57"
"Y4Fq1FJuTb","Fitness Rooms","The Jockey Club Tuen Mun Butterfly Beach Sports Centre","Wu Shan Road, Tuen Mun","健身室","賽馬會屯門蝴蝶灣體育館","屯門湖山道","TUEN MUN","屯門","BASKETBALL COURTS,VOLLEYBALL COURTS,BADMINTON COURTS,SQUASH COURTS,TABLE TENNIS TABLES,ACTIVITY ROOMS,FITNESS ROOMS,DANCE ROOMS","籃球場,排球場,羽毛球場,壁球場,乒乓球檯,活動室,健身室,舞蹈室","","","","","","","","","http://www.lcsd.gov.hk/en/facilities/facilitieslist/landsports/sportcentre.html","http://www.lcsd.gov.hk/tc/facilities/facilitieslist/landsports/sportcentre.html","N.A.","N.A.","826625.0","814417.0","22.37869","113.9647","2010-01-13 18:39:07"
"iovenAqhn8","Fitness Rooms","Tin Fai Road Sports Centre","No. 63, Tin Shui Road, Tin Shui Wai, Yuen Long, N.T.","健身室","天暉路體育館","天水圍天瑞路63號","YUEN LONG","元朗","BADMINTON COURTS,ACTIVITY ROOMS,BASKETBALL COURTS,VOLLEYBALL COURTS,FITNESS ROOMS,TABLE TENNIS TABLES,CHILDREN'S PLAY ROOMS,SPORTS CLIMBING FACILITIES,INDOOR JOGGING TRACKS,SPECTATOR STANDS","羽毛球場,活動室,籃球場,排球場,健身室,乒乓球檯,兒童遊戲室,運動攀登設施,室內緩跑徑,觀眾席看台","7 am to 11 pm daily","每日上午7時至晚上11時","2473 0229","2473 0229","2473 0311","2473 0311","tfrsc@lcsd.gov.hk","tfrsc@lcsd.gov.hk","N.A.","N.A.","N.A.","N.A.","836155.6","817757.1","22.4648","113.99702","2013-08-15 17:46:34"
"Ut6jiYpSXV","Fitness Rooms","Tin Ping Sports Centre","3/F., Tin Ping Estate Shopping Centre, Tin Ping Estate, North","健身室","天平體育館","上水天平邨天平購物中心3樓","NORTH","北區","BASKETBALL COURTS,VOLLEYBALL COURTS,BADMINTON COURTS,SQUASH COURTS,TABLE TENNIS TABLES,ACTIVITY ROOMS,FITNESS ROOMS","籃球場,排球場,羽毛球場,壁球場,乒乓球檯,活動室,健身室","N.A.","N.A.","N.A.","N.A.","N.A.","N.A.","N.A.","N.A.","http://www.lcsd.gov.hk/en/facilities/facilitieslist/landsports/sportcentre.html","http://www.lcsd.gov.hk/tc/facilities/facilitieslist/landsports/sportcentre.html","N.A.","N.A.","840411.0","831820.0","22.50332","114.13365","2010-01-13 18:42:16"
"NA453y8t3Y","Fitness Rooms","Tin Shui Sports Centre","7 Tin Shui Road, Tin Shui Wai, Yuen Long","健身室","天瑞體育館","天水圍天瑞路7號","YUEN LONG","元朗","BASKETBALL COURTS,VOLLEYBALL COURTS,BADMINTON COURTS,HANDBALL COURTS,TABLE TENNIS TABLES,ACTIVITY ROOMS,FITNESS ROOMS,CHILDREN'S PLAY ROOMS","籃球場,排球場,羽毛球場,手球場,乒乓球檯,活動室,健身室,兒童遊戲室","N.A.","N.A.","N.A.","N.A.","N.A.","N.A.","N.A.","N.A.","http://www.lcsd.gov.hk/en/facilities/facilitieslist/landsports/sportcentre.html","http://www.lcsd.gov.hk/tc/facilities/facilitieslist/landsports/sportcentre.html","N.A.","N.A.","835045.0","817854.0","22.45477","113.99798","2010-01-13 18:47:53"
"s82ZhTsvAe","Fitness Rooms","Tin Shui Wai Sports Centre","1 Tin Pak Road, Tin Shui Wai, Yuen Long","健身室","天水圍體育館","元朗天水圍天柏路1號","YUEN LONG","元朗","BASKETBALL COURTS,VOLLEYBALL COURTS,BADMINTON COURTS,SQUASH COURTS,ACTIVITY ROOMS,FITNESS ROOMS,DANCE ROOMS","籃球場,排球場,羽毛球場,壁球場,活動室,健身室,舞蹈室","N.A.","N.A.","N.A.","N.A.","N.A.","N.A.","N.A.","N.A.","http://www.lcsd.gov.hk/en/facilities/facilitieslist/landsports/sportcentre.html","http://www.lcsd.gov.hk/tc/facilities/facilitieslist/landsports/sportcentre.html","N.A.","N.A.","835071.0","818736.0","22.45501","114.00654","2010-01-13 18:46:02"
"4Sk1jN8EAV","Fitness Rooms","To Kwa Wan Sports Centre","66 Ha Heung Road, To Kwa Wan","健身室","土瓜灣體育館","土瓜灣下鄉道66號","KOWLOON CITY","九龍城","BASKETBALL COURTS,VOLLEYBALL COURTS,NETBALL COURTS,BADMINTON COURTS,ACTIVITY ROOMS,SQUASH COURTS,TABLE TENNIS TABLES,FITNESS ROOMS","籃球場,排球場,投球場,羽毛球場,活動室,壁球場,乒乓球檯,健身室","N.A.","N.A.","N.A.","N.A.","N.A.","N.A.","N.A.","N.A.","http://www.lcsd.gov.hk/en/facilities/facilitieslist/landsports/sportcentre.html","http://www.lcsd.gov.hk/tc/facilities/facilitieslist/landsports/sportcentre.html","N.A.","N.A.","819983.0","837633.0","22.31885","114.19012","2010-01-13 18:47:47"
"oJ7gIWYsqo","Fitness Rooms","Tseung Kwan O Sports Centre","9 Wan Lung Road, Tseung Kwan O, Sai Kung","健身室","將軍澳體育館","西貢將軍澳運隆路9號","SAI KUNG","西貢","BASKETBALL COURTS,VOLLEYBALL COURTS,BADMINTON COURTS,SQUASH COURTS,TABLE TENNIS TABLES,ACTIVITY ROOMS,FITNESS ROOMS","籃球場,排球場,羽毛球場,壁球場,乒乓球檯,活動室,健身室","","","","","","","","","http://www.lcsd.gov.hk/en/facilities/facilitieslist/landsports/sportcentre.html","http://www.lcsd.gov.hk/tc/facilities/facilitieslist/landsports/sportcentre.html","N.A.","N.A.","819792.0","844794.0","22.3171","114.25963","2010-01-13 18:38:43"
"6kKCJuGvX9","Fitness Rooms","Tsing Yi Sports Centre","2/F, Tsing Yi Municipal Services Building, 38 Tsing Luk Street, Tsing Yi","健身室","青衣體育館","青衣青綠街38號青衣市政大廈2樓","KWAI TSING","葵青","BASKETBALL COURTS,VOLLEYBALL COURTS,BADMINTON COURTS,SQUASH COURTS,TABLE TENNIS TABLES,ACTIVITY ROOMS,FITNESS ROOMS,DANCE ROOMS","籃球場,排球場,羽毛球場,壁球場,乒乓球檯,活動室,健身室,舞蹈室","","","","","","","","","http://www.lcsd.gov.hk/en/facilities/facilitieslist/landsports/sportcentre.html","http://www.lcsd.gov.hk/tc/facilities/facilitieslist/landsports/sportcentre.html","N.A.","N.A.","823899.9","829020.0","22.35421","114.10651","2010-01-13 18:45:42"
"uKWfLywRHi","Fitness Rooms","Tsuen Wan Sports Centre","53 Wing Shun Street, Tsuen Wan, N.T.","健身室","荃灣體育館","荃灣永順街53號","TSUEN WAN","荃灣","ACTIVITY ROOMS,BADMINTON COURTS,BASKETBALL COURTS,CHILDREN'S PLAY ROOMS,DANCE ROOMS,FITNESS ROOMS,SPECTATOR STANDS,SPORTS CENTRES,SPORTS CLIMBING FACILITIES,TABLE TENNIS TABLES,VOLLEYBALL COURTS","活動室,羽毛球場,籃球場,兒童遊戲室,舞蹈室,健身室,觀眾席看台,體育館,運動攀登設施,乒乓球檯,排球場","7 am to 11 pm daily (except maintenance day)","每日上午7時至晚上11時 (定期保養日除外)","23929570","23929570","24049055","24049055","tsuenwansc@lcsd.gov.hk","tsuenwansc@lcsd.gov.hk","https://www.lcsd.gov.hk/tc/facilities/facilitieslist.html","https://www.lcsd.gov.hk/tc/facilities/facilitieslist.html","N.A.","N.A.","825200.7","829651.8","22.36596","114.11264","2018-12-03 12:21:00"
"1m8aWUApNi","Fitness Rooms","Tsuen Wan West Sports Centre","68 Hoi On Road, Tsuen Wan","健身室","荃灣西約體育館","荃灣海安路68號","TSUEN WAN","荃灣","BASKETBALL COURTS,VOLLEYBALL COURTS,BADMINTON COURTS,SQUASH COURTS,TABLE TENNIS TABLES,ACTIVITY ROOMS,FITNESS ROOMS","籃球場,排球場,羽毛球場,壁球場,乒乓球檯,活動室,健身室","N.A.","N.A.","N.A.","N.A.","N.A.","N.A.","N.A.","N.A.","http://www.lcsd.gov.hk/en/facilities/facilitieslist/landsports/sportcentre.html","http://www.lcsd.gov.hk/tc/facilities/facilitieslist/landsports/sportcentre.html","N.A.","N.A.","825702.0","828403.0","22.37048","114.10051","2010-01-13 18:41:55"
"uLu7BSox9C","Fitness Rooms","Tsui Lam Sports Centre","Tsui Lam Estate, Sai Kung","健身室","翠林體育館","西貢將軍澳翠林邨","SAI KUNG","西貢","BASKETBALL COURTS,VOLLEYBALL COURTS,BADMINTON COURTS,SQUASH COURTS,TABLE TENNIS TABLES,ACTIVITY ROOMS,FITNESS ROOMS","籃球場,排球場,羽毛球場,壁球場,乒乓球檯,活動室,健身室","","","","","","","","","http://www.lcsd.gov.hk/en/facilities/facilitieslist/landsports/sportcentre.html","http://www.lcsd.gov.hk/tc/facilities/facilitieslist/landsports/sportcentre.html","N.A.","N.A.","820359.0","843754.0","22.32223","114.24953","2010-01-13 18:45:57"
"dHsPb8snlq","Fitness Rooms","Tung Chung Man Tung Road Sports Centre","G/F., Tung Chung Municipal Services Building, 39 Man Tung Road, Tung Chung","健身室","東涌文東路體育館","東涌文東路39號東涌市政大樓地下","ISLANDS","離島","BASKETBALL COURTS, VOLLEYBALL COURTS, BADMINTON COURTS,TABLE TENNIS TABLES,ACTIVITY ROOMS,FITNESS ROOMS,CHILDREN'S PLAY ROOMS","籃球場,排球場,羽毛球場,乒乓球檯,活動室,健身室,兒童遊戲室","N.A.","N.A.","N.A.","N.A.","N.A.","N.A.","N.A.","N.A.","http://www.lcsd.gov.hk/en/facilities/facilitieslist/landsports/sportcentre.html","http://www.lcsd.gov.hk/tc/facilities/facilitieslist/landsports/sportcentre.html","N.A.","N.A.","816872.0","812252.7","22.29059","113.94383","2010-03-09 18:04:35"
"UioMm8tCCe","Fitness Rooms","Wai Tsuen Sports Centre","6 Miu Kong Street, Tsuen Wan","健身室","蕙荃體育館","荃灣廟崗街6號","TSUEN WAN","荃灣","BASKETBALL COURTS,VOLLEYBALL COURTS,BADMINTON COURTS,SQUASH COURTS,TABLE TENNIS TABLES,ACTIVITY ROOMS,FITNESS ROOMS","籃球場,排球場,羽毛球場,壁球場,乒乓球檯,活動室,健身室","N.A.","N.A.","N.A.","N.A.","N.A.","N.A.","N.A.","N.A.","http://www.lcsd.gov.hk/en/facilities/facilitieslist/landsports/sportcentre.html","http://www.lcsd.gov.hk/tc/facilities/facilitieslist/landsports/sportcentre.html","N.A.","N.A.","825905.0","830667.0","22.37232","114.12249","2010-01-13 18:48:21"
"9r9fhG3Vwe","Fitness Rooms","Wo Hing Sports Centre","8 Wo Ming Lane, Fanling","健身室","和興體育館","粉嶺和明里8號","NORTH","北區","BASKETBALL COURTS,VOLLEYBALL COURTS,BADMINTON COURTS,TENNIS COURTS,ACTIVITY ROOMS,FITNESS ROOMS,SQUASH COURTS,TABLE TENNIS TABLES,AMERICAN POOL TABLES","籃球場,排球場,羽毛球場,網球場,活動室,健身室,壁球場,乒乓球檯,美式桌球檯","N.A.","N.A.","N.A.","N.A.","N.A.","N.A.","N.A.","N.A.","http://www.lcsd.gov.hk/en/facilities/facilitieslist/landsports/sportcentre.html","http://www.lcsd.gov.hk/tc/facilities/facilitieslist/landsports/sportcentre.html","N.A.","N.A.","838355.0","832796.0","22.48475","114.14314","2010-01-13 18:41:45"
"3WuK7QCTur","Fitness Rooms","Yau Oi Sports Centre","3 Hing On Lane, Tuen Mun","健身室","友愛體育館","屯門興安里3號","TUEN MUN","屯門","BASKETBALL COURTS,VOLLEYBALL COURTS,NETBALL COURTS,BADMINTON COURTS,SQUASH COURTS,TABLE TENNIS TABLES,ACTIVITY ROOMS,FITNESS ROOMS","籃球場,排球場,投球場,羽毛球場,壁球場,乒乓球檯,活動室,健身室","","","","","","","","","http://www.lcsd.gov.hk/en/facilities/facilitieslist/landsports/sportcentre.html","http://www.lcsd.gov.hk/tc/facilities/facilitieslist/landsports/sportcentre.html","N.A.","N.A.","827373.5","815149.4","22.38546","113.9718","2010-01-13 18:45:19"
"NRKmwY0FTv","Fitness Rooms","Yeung Uk Road Sports Centre","4/F Yeung Uk Road Municipal Services Building, 45 Yeung Uk Road, Tsuen Wan","健身室","楊屋道體育館","荃灣楊屋道45號楊屋道市政大廈四樓","TSUEN WAN","荃灣","BASKETBALL COURTS,VOLLEYBALL COURTS,BADMINTON COURTS,SQUASH COURTS,TABLE TENNIS TABLES,ACTIVITY ROOMS,FITNESS ROOMS","籃球場,排球場,羽毛球場,壁球場,乒乓球檯,活動室,健身室","N.A.","N.A.","N.A.","N.A.","N.A.","N.A.","N.A.","N.A.","http://www.lcsd.gov.hk/en/facilities/facilitieslist/landsports/sportcentre.html","http://www.lcsd.gov.hk/tc/facilities/facilitieslist/landsports/sportcentre.html","N.A.","N.A.","825537.0","829846.0","22.36899","114.11452","2010-01-13 18:41:10"
"HqrSUV6WOM","Fitness Rooms","Yuen Long Sports Centre","3/F, Yuen Long Leisure and Cultural Building, 52 Ma Tin Road, Yuen Long","健身室","元朗體育館","元朗馬田路52號元朗文化康樂大樓3樓","YUEN LONG","元朗","BADMINTON COURTS,ACTIVITY ROOMS,BASKETBALL COURTS,VOLLEYBALL COURTS,FITNESS ROOMS,TABLE TENNIS TABLES,CHILDREN'S PLAY ROOMS","羽毛球場,活動室,籃球場,排球場,健身室,乒乓球檯,兒童遊戲室","0700hr – 2300hr","每日上午7時至晚上11時<br/><br/>(定期保養日除外)","2891 9207","2891 9207","2891 9021","2891 9021","ylsc@lcsd.gov.hk","ylsc@lcsd.gov.hk","http://www.lcsd.gov.hk/en/facilities/facilitieslist/facilities.php?ftid=0&did=18","http://www.lcsd.gov.hk/tc/facilities/facilitieslist/facilities.php?ftid=0&did=18","N.A.","N.A.","833569.1","820517.2","22.44147","114.02386","2017-08-16 14:46:46"
"tyMJ15v7En","Fitness Rooms","Yuen Wo Road Sports Centre","4 Yuen Wo Road, Sha Tin","健身室","源禾路體育館","沙田源禾路4號","SHA TIN","沙田","BASKETBALL COURTS,VOLLEYBALL COURTS,NETBALL COURTS,BADMINTON COURTS,SQUASH COURTS,TABLE TENNIS TABLES,ACTIVITY ROOMS,FITNESS ROOMS","籃球場,排球場,投球場,羽毛球場,壁球場,乒乓球檯,活動室,健身室","N.A.","N.A.","N.A.","N.A.","N.A.","N.A.","N.A.","N.A.","http://www.lcsd.gov.hk/en/facilities/facilitieslist/landsports/sportcentre.html","http://www.lcsd.gov.hk/tc/facilities/facilitieslist/landsports/sportcentre.html","N.A.","N.A.","827080.0","837884.0","22.38294","114.19257","2010-01-13 18:45:10"
